{
  "type": "FeatureCollection",
  "features": [
    {
      "type": "Feature",
      "properties": {
        "norad_id": 66683,
        "name": "TRANSPORTER-15T",
        "group": "last-30-days",
        "lat": -73.13204498512637,
        "lon": -133.71336839574016,
        "alt_km": 519.0923174543286,
        "timestamp": "2025-12-26T07:29:17.192198+00:00",
        "meta_object_name": "TRANSPORTER-15T",
        "meta_object_id": "2025-276T",
        "meta_epoch": "2025-12-25T22:27:11.386080",
        "meta_mean_motion": 15.1706167,
        "meta_eccentricity": 0.0004846,
        "meta_inclination": 97.4445,
        "meta_ra_of_asc_node": 71.4633,
        "meta_arg_of_pericenter": 228.0343,
        "meta_mean_anomaly": 132.0478,
        "meta_ephemeris_type": 0,
        "meta_classification_type": "U",
        "meta_norad_cat_id": 66683,
        "meta_element_set_no": 999,
        "meta_rev_at_epoch": 412,
        "meta_bstar": 0.00026911148,
        "meta_mean_motion_dot": 5.262e-05,
        "meta_mean_motion_ddot": 0,
        "tle_line1": "1 66683U 25276T   25359.93554845  .00005262  00000+0  26911-3 0  9994",
        "tle_line2": "2 66683  97.4445  71.4633 0004846 228.0343 132.0478 15.17061670  4128"
      },
      "geometry": {
        "type": "Point",
        "coordinates": [
          -133.71336839574016,
          -73.13204498512637
        ]
      }
    },
    {
      "type": "Feature",
      "properties": {
        "norad_id": 66684,
        "name": "TRANSPORTER-15U",
        "group": "last-30-days",
        "lat": -80.53699643884029,
        "lon": 123.54777759975889,
        "alt_km": 519.0558822796138,
        "timestamp": "2025-12-26T07:29:17.192236+00:00",
        "meta_object_name": "TRANSPORTER-15U",
        "meta_object_id": "2025-276U",
        "meta_epoch": "2025-12-25T22:21:45.244224",
        "meta_mean_motion": 15.17392084,
        "meta_eccentricity": 0.00046216,
        "meta_inclination": 97.4469,
        "meta_ra_of_asc_node": 71.4767,
        "meta_arg_of_pericenter": 226.253,
        "meta_mean_anomaly": 133.8321,
        "meta_ephemeris_type": 0,
        "meta_classification_type": "U",
        "meta_norad_cat_id": 66684,
        "meta_element_set_no": 999,
        "meta_rev_at_epoch": 412,
        "meta_bstar": 0.00054572906,
        "meta_mean_motion_dot": 0.00010848,
        "meta_mean_motion_ddot": 0,
        "tle_line1": "1 66684U 25276U   25359.93177366  .00010848  00000+0  54573-3 0  9995",
        "tle_line2": "2 66684  97.4469  71.4767 0004621 226.2530 133.8321 15.17392084  4124"
      },
      "geometry": {
        "type": "Point",
        "coordinates": [
          123.54777759975889,
          -80.53699643884029
        ]
      }
    },
    {
      "type": "Feature",
      "properties": {
        "norad_id": 66685,
        "name": "TRANSPORTER-15V",
        "group": "last-30-days",
        "lat": -73.399429631328,
        "lon": 97.83765751158171,
        "alt_km": 518.2943833021673,
        "timestamp": "2025-12-26T07:29:17.192246+00:00",
        "meta_object_name": "TRANSPORTER-15V",
        "meta_object_id": "2025-276V",
        "meta_epoch": "2025-12-25T22:19:25.375584",
        "meta_mean_motion": 15.17559853,
        "meta_eccentricity": 0.00040188,
        "meta_inclination": 97.4413,
        "meta_ra_of_asc_node": 71.4598,
        "meta_arg_of_pericenter": 249.4175,
        "meta_mean_anomaly": 110.6627,
        "meta_ephemeris_type": 0,
        "meta_classification_type": "U",
        "meta_norad_cat_id": 66685,
        "meta_element_set_no": 999,
        "meta_rev_at_epoch": 412,
        "meta_bstar": 0.0007236312,
        "meta_mean_motion_dot": 0.00014482,
        "meta_mean_motion_ddot": 0,
        "tle_line1": "1 66685U 25276V   25359.93015481  .00014482  00000+0  72363-3 0  9990",
        "tle_line2": "2 66685  97.4413  71.4598 0004018 249.4175 110.6627 15.17559853  4129"
      },
      "geometry": {
        "type": "Point",
        "coordinates": [
          97.83765751158171,
          -73.399429631328
        ]
      }
    },
    {
      "type": "Feature",
      "properties": {
        "norad_id": 66686,
        "name": "TRANSPORTER-15W",
        "group": "last-30-days",
        "lat": -80.89215756044678,
        "lon": 126.43380597257811,
        "alt_km": 508.5673572989217,
        "timestamp": "2025-12-26T07:29:17.192258+00:00",
        "meta_object_name": "TRANSPORTER-15W",
        "meta_object_id": "2025-276W",
        "meta_epoch": "2025-12-24T16:18:47.855520",
        "meta_mean_motion": 15.18035485,
        "meta_eccentricity": 0.00181838,
        "meta_inclination": 97.4405,
        "meta_ra_of_asc_node": 70.2223,
        "meta_arg_of_pericenter": 243.6801,
        "meta_mean_anomaly": 116.2566,
        "meta_ephemeris_type": 0,
        "meta_classification_type": "U",
        "meta_norad_cat_id": 66686,
        "meta_element_set_no": 999,
        "meta_rev_at_epoch": 393,
        "meta_bstar": 0.0029615296,
        "meta_mean_motion_dot": 0.00060911,
        "meta_mean_motion_ddot": 0,
        "tle_line1": "1 66686U 25276W   25358.67972055  .00060911  00000+0  29615-2 0  9999",
        "tle_line2": "2 66686  97.4405  70.2223 0018183 243.6801 116.2566 15.18035485  3936"
      },
      "geometry": {
        "type": "Point",
        "coordinates": [
          126.43380597257811,
          -80.89215756044678
        ]
      }
    },
    {
      "type": "Feature",
      "properties": {
        "norad_id": 66687,
        "name": "TRANSPORTER-15X",
        "group": "last-30-days",
        "lat": -45.83549544484456,
        "lon": -115.9326336631708,
        "alt_km": 527.9304333494956,
        "timestamp": "2025-12-26T07:29:17.192269+00:00",
        "meta_object_name": "TRANSPORTER-15X",
        "meta_object_id": "2025-276X",
        "meta_epoch": "2025-12-25T22:34:38.506944",
        "meta_mean_motion": 15.16782632,
        "meta_eccentricity": 0.00080991,
        "meta_inclination": 97.4384,
        "meta_ra_of_asc_node": 71.4338,
        "meta_arg_of_pericenter": 44.0866,
        "meta_mean_anomaly": 316.1011,
        "meta_ephemeris_type": 0,
        "meta_classification_type": "U",
        "meta_norad_cat_id": 66687,
        "meta_element_set_no": 999,
        "meta_rev_at_epoch": 412,
        "meta_bstar": 0.00064460205,
        "meta_mean_motion_dot": 0.00012614,
        "meta_mean_motion_ddot": 0,
        "tle_line1": "1 66687U 25276X   25359.94072346  .00012614  00000+0  64460-3 0  9990",
        "tle_line2": "2 66687  97.4384  71.4338 0008099  44.0866 316.1011 15.16782632  4121"
      },
      "geometry": {
        "type": "Point",
        "coordinates": [
          -115.9326336631708,
          -45.83549544484456
        ]
      }
    },
    {
      "type": "Feature",
      "properties": {
        "norad_id": 66688,
        "name": "TRANSPORTER-15Y",
        "group": "last-30-days",
        "lat": -80.9973589920178,
        "lon": -163.76847381691954,
        "alt_km": 519.7000469720824,
        "timestamp": "2025-12-26T07:29:17.192280+00:00",
        "meta_object_name": "TRANSPORTER-15Y",
        "meta_object_id": "2025-276Y",
        "meta_epoch": "2025-12-25T12:54:40.837824",
        "meta_mean_motion": 15.17117879,
        "meta_eccentricity": 0.0003764,
        "meta_inclination": 97.4426,
        "meta_ra_of_asc_node": 71.0715,
        "meta_arg_of_pericenter": 234.2435,
        "meta_mean_anomaly": 125.8449,
        "meta_ephemeris_type": 0,
        "meta_classification_type": "U",
        "meta_norad_cat_id": 66688,
        "meta_element_set_no": 999,
        "meta_rev_at_epoch": 406,
        "meta_bstar": 0.00056854,
        "meta_mean_motion_dot": 0.00011216,
        "meta_mean_motion_ddot": 0,
        "tle_line1": "1 66688U 25276Y   25359.53797266  .00011216  00000+0  56854-3 0  9996",
        "tle_line2": "2 66688  97.4426  71.0715 0003764 234.2435 125.8449 15.17117879  4062"
      },
      "geometry": {
        "type": "Point",
        "coordinates": [
          -163.76847381691954,
          -80.9973589920178
        ]
      }
    },
    {
      "type": "Feature",
      "properties": {
        "norad_id": 66689,
        "name": "TRANSPORTER-15Z",
        "group": "last-30-days",
        "lat": 69.74573385142692,
        "lon": -87.34767299268167,
        "alt_km": 448.62323534568714,
        "timestamp": "2025-12-26T07:29:17.192290+00:00",
        "meta_object_name": "TRANSPORTER-15Z",
        "meta_object_id": "2025-276Z",
        "meta_epoch": "2025-12-22T21:27:46.425312",
        "meta_mean_motion": 15.23073772,
        "meta_eccentricity": 0.00272271,
        "meta_inclination": 97.4409,
        "meta_ra_of_asc_node": 68.4858,
        "meta_arg_of_pericenter": 260.8557,
        "meta_mean_anomaly": 98.9599,
        "meta_ephemeris_type": 0,
        "meta_classification_type": "U",
        "meta_norad_cat_id": 66689,
        "meta_element_set_no": 999,
        "meta_rev_at_epoch": 366,
        "meta_bstar": 0.086131248,
        "meta_mean_motion_dot": 0.02294864,
        "meta_mean_motion_ddot": 0,
        "tle_line1": "1 66689U 25276Z   25356.89428733  .02294864  00000+0  86131-1 0  9996",
        "tle_line2": "2 66689  97.4409  68.4858 0027227 260.8557  98.9599 15.23073772  3663"
      },
      "geometry": {
        "type": "Point",
        "coordinates": [
          -87.34767299268167,
          69.74573385142692
        ]
      }
    }
  ]
}